[{"OBJECT_NAME":"TEN-KOH","OBJECT_ID":"2018-084G","EPOCH":"2026-03-09T23:23:52.653408","MEAN_MOTION":15.02465351,"ECCENTRICITY":0.0011972,"INCLINATION":98.0798,"RA_OF_ASC_NODE":257.1735,"ARG_OF_PERICENTER":91.8355,"MEAN_ANOMALY":268.424,"EPHEMERIS_TYPE":0,"CLASSIFICATION_TYPE":"U","NORAD_CAT_ID":43677,"ELEMENT_SET_NO":999,"REV_AT_EPOCH":40126,"BSTAR":0.00025918134,"MEAN_MOTION_DOT":3.377e-5,"MEAN_MOTION_DDOT":0},{"OBJECT_NAME":"STARLINK-4369","OBJECT_ID":"2022-084C","EPOCH":"2026-03-09T17:00:44.925120","MEAN_MOTION":15.01260154,"ECCENTRICITY":0.00024677,"INCLINATION":97.6029,"RA_OF_ASC_NODE":130.2336,"ARG_OF_PERICENTER":83.994,"MEAN_ANOMALY":276.1566,"EPHEMERIS_TYPE":0,"CLASSIFICATION_TYPE":"U","NORAD_CAT_ID":53191,"ELEMENT_SET_NO":999,"REV_AT_EPOCH":19931,"BSTAR":1.4264483e-5,"MEAN_MOTION_DOT":1.25e-6,"MEAN_MOTION_DDOT":0}]
